#aV2008  8 28  0  0   .00000000      96 DD+AD WGS84 FIT  NGA
## 1494 345600.00000000   900.00000000 54706  .0000000000000
+   31     2  3  4  5  6  7  8  9 10 11 12 13 14 15 16 17 18
+         19 20 21 22 23 24 25 26 27 28 29 30 31 32  0  0  0
+          0  0  0  0  0  0  0  0  0  0  0  0  0  0  0  0  0
+          0  0  0  0  0  0  0  0  0  0  0  0  0  0  0  0  0
+          0  0  0  0  0  0  0  0  0  0  0  0  0  0  0  0  0
++         0  0  0  0  0  0  0  0  0  0  0  0  0  0  0  0  0
++         0  0  0  0  0  0  0  0  0  0  0  0  0  0  0  0  0
++         0  0  0  0  0  0  0  0  0  0  0  0  0  0  0  0  0
++         0  0  0  0  0  0  0  0  0  0  0  0  0  0  0  0  0
++         0  0  0  0  0  0  0  0  0  0  0  0  0  0  0  0  0
%c cc cc ccc ccc cccc cccc cccc cccc ccccc ccccc ccccc ccccc
%c cc cc ccc ccc cccc cccc cccc cccc ccccc ccccc ccccc ccccc
%f  0.0000000  0.000000000  0.00000000000  0.000000000000000
%f  0.0000000  0.000000000  0.00000000000  0.000000000000000
%i    0    0    0    0      0      0      0      0         0
%i    0    0    0    0      0      0      0      0         0
/*      NGA, ST. LOUIS,MO.                                  
/*   EPHEMERIS COMPUTED FROM  3 DAYS OF DATA                
/* CCCCCCCCCCCCCCCCCCCCCCCCCCCCCCCCCCCCCCCCCCCCCCCCCCCCCCCCC
/* CCCCCCCCCCCCCCCCCCCCCCCCCCCCCCCCCCCCCCCCCCCCCCCCCCCCCCCCC
*  2008  8 28  8  0   .00000000                                                 
P  2  21202.709395  -9825.016685 -12411.217538    191.652165                    
V  2  -8390.703459  13630.728438 -25775.509213      -.028010                    
P  3 -15149.347294   4760.659324  21030.327461    275.691029                    
V  3 -10733.043122 -25283.914881  -1626.207238       .052233                    
P  4  18066.043721   1698.285373 -19611.661650   -154.948100                    
V  4 -16084.383051  18706.055710 -12900.837809      -.107205                    
P  5   3479.693516 -15374.854091 -21661.674347    295.466716                    
V  5  26620.648981   3843.295303   1703.654628     -2.391059                    
P  6 -16538.459620   -261.251254  20972.221922    167.621234                    
V  6  -8013.536190 -25058.661161  -6698.194131      -.001080                    
P  7  -1105.455844  19477.174354  17951.876877     12.705701                    
V  7 -16790.820848  15631.110006 -18051.645098       .032904                    
P  8  10284.361845  10445.430050  22067.153944   -167.574036                    
V  8 -20442.107129  19353.288488   -107.790862      -.015757                    
P  9  13516.043846 -22078.874164  -6252.810851     12.137983                    
V  9   6459.447863  -3831.737014  30781.576611       .019006                    
P 10  23991.656369  -2029.683648  11432.832337     -4.247977                    
V 10  13604.801948   5743.569680 -26882.736718      -.004399                    
P 11  -9446.978252  24007.479870  -5686.106212     20.902520                    
V 11  -8096.665805   3441.233560  29146.390676      -.006925                    
P 12   9982.130466 -12627.458398 -21029.157069   -353.089610                    
V 12  26010.651179   6877.666910   8283.288610       .012941                    
P 13   5492.635412  25947.916726  -1568.150163    269.194753                    
V 13  -2086.606279  -1370.433590 -32426.688544       .012947                    
P 14 -14541.305396 -16615.854043 -14740.471594   -226.798700                    
V 14  -3589.050893 -18510.234761  24120.452500       .045955                    
P 15   9676.625766 -15088.317051  19620.928536   -167.525290                    
V 15   8754.471234  23316.054470  13642.090440      -.064978                    
P 16 -25806.166531  -1848.238146   6538.604032    109.958675                    
V 16  -7349.594339  -4267.454566 -30294.097532      -.019604                    
P 17  15245.762453  16400.410072 -14369.913356     38.881428                    
V 17   3140.708015  18100.434005  23749.722397      -.001034                    
P 18 -12020.498123 -16321.781970  17549.082376   -140.145348                    
V 18  21481.729697   4055.087637  18328.579536       .041492                    
P 19 -10171.345942  15491.556538  19028.605783     35.067144                    
V 19  -6863.260583 -23126.184093  15422.900054       .002582                    
P 20  -6570.131041  14412.584934 -21432.419986    106.235413                    
V 20 -26329.249134  -6017.317347   4078.998001      -.010658                    
P 21  -4715.080115 -16567.859563  20275.135572     52.810055                    
V 21  18894.418389 -17242.898877 -10414.584314      -.014538                    
P 22 -22552.540401 -11945.034712   7637.862694    211.172067                    
V 22   9960.745961   -424.071970  29304.375275      -.000223                    
P 23  -1394.627549  23589.917902 -11913.330761    370.857714                    
V 23  -6521.415677 -13819.080269 -26995.673149       .015450                    
P 24  10016.621836 -21670.654269  12087.782046    120.649105                    
V 24  12414.882025  -8761.324559 -26078.676751       .030319                    
P 25  -6086.309464  22648.114410  12993.146499   -250.665649                    
V 25 -11189.775701  11389.499045 -25629.597375       .595279                    
P 26  11869.157501  -9427.201481  21230.899478    316.899115                    
V 26   7640.771578  27105.915189   8098.826652       .059084                    
P 27   2787.889261  18042.250211  19927.084673    213.445509                    
V 27 -16001.611551  17732.255308 -14428.372838       .028213                    
P 28  21885.798510  12435.343288   9377.388042    -22.110908                    
V 28 -11414.309621   -814.768917  28604.265268      -.003272                    
P 29  -4028.259871 -25864.325537  -4488.424797    -38.964947                    
V 29   4249.788054   4866.035210 -31035.911294       .008927                    
P 30  -6261.135375 -16136.219837 -20525.727941     93.582289                    
V 30  25025.778455   3753.188811 -10678.527805       .020245                    
P 31 -19059.462908   2148.597307 -18221.017456    -25.053776                    
V 31  14935.191578 -18179.286812 -17464.224720      -.000750                    
P 32 -14581.146095   9466.521372 -19596.068692    314.901112                    
V 32 -24219.311634  -9171.166181  13478.740644       .011673                    
EOF
